{"fetched_at":"2026-03-29T16:36:15Z","count":15609,"tles":[{"name":"STARLINK-36111","line1":"1 66950U 25286AB  26087.89306050  .00032525  00000+0  11054-2 0  9992","line2":"2 66950  53.1577 269.4776 0001004  84.4019 275.7096 15.30202689 18357","category":"Starlink"}]}